{
 "type": "FeatureCollection",
 "features": [
  {
   "type": "Feature",
   "properties": {
    "id": "sicilia",
    "layer": "admin_regions",
    "name_ko": "시칠리아",
    "name_ancient": "Sicilia",
    "valid_from": -227,
    "source": "book+web",
    "confidence": "medium",
    "note": "시라쿠사(히에론 왕국)는 BC212까지 제외 — 개략화"
   },
   "geometry": {
    "type": "MultiPolygon",
    "coordinates": [
     [
      [
       [
        14.3,
        37.2
       ],
       [
        14.866,
        36.729
       ],
       [
        14.882,
        36.731
       ],
       [
        14.919,
        36.72
       ],
       [
        14.923,
        36.717
       ],
       [
        15.135,
        36.876
       ],
       [
        15.158,
        36.924
       ],
       [
        15.175,
        36.944
       ],
       [
        15.196,
        36.953
       ],
       [
        15.212,
        36.956
       ],
       [
        15.227,
        36.965
       ],
       [
        15.244,
        36.972
       ],
       [
        15.264,
        36.973
       ],
       [
        15.268,
        36.976
       ],
       [
        15.268,
        36.981
       ],
       [
        15.264,
        36.987
       ],
       [
        15.266,
        36.989
       ],
       [
        15.275,
        36.994
       ],
       [
        15.268,
        37
       ],
       [
        15.303,
        37.016
       ],
       [
        15.306,
        37.017
       ],
       [
        15.314,
        37.043
       ],
       [
        15.312,
        37.044
       ],
       [
        15.292,
        37.042
       ],
       [
        15.284,
        37.048
       ],
       [
        15.282,
        37.061
       ],
       [
        15.288,
        37.069
       ],
       [
        15.303,
        37.062
       ],
       [
        15.308,
        37.087
       ],
       [
        15.303,
        37.101
       ],
       [
        15.289,
        37.108
       ],
       [
        15.265,
        37.11
       ],
       [
        15.247,
        37.118
       ],
       [
        15.232,
        37.135
       ],
       [
        15.229,
        37.15
       ],
       [
        15.248,
        37.152
       ],
       [
        15.248,
        37.159
       ],
       [
        15.233,
        37.165
       ],
       [
        15.216,
        37.155
       ],
       [
        15.195,
        37.176
       ],
       [
        15.183,
        37.207
       ],
       [
        15.199,
        37.228
       ],
       [
        15.193,
        37.24
       ],
       [
        15.205,
        37.245
       ],
       [
        15.216,
        37.245
       ],
       [
        15.222,
        37.237
       ],
       [
        15.22,
        37.22
       ],
       [
        15.229,
        37.23
       ],
       [
        15.236,
        37.242
       ],
       [
        15.245,
        37.246
       ],
       [
        15.261,
        37.234
       ],
       [
        15.252,
        37.258
       ],
       [
        15.237,
        37.275
       ],
       [
        15.217,
        37.285
       ],
       [
        15.18,
        37.291
       ],
       [
        15.111,
        37.322
       ],
       [
        15.104,
        37.33
       ],
       [
        15.097,
        37.344
       ],
       [
        15.092,
        37.361
       ],
       [
        15.09,
        37.459
       ],
       [
        15.092,
        37.477
       ],
       [
        15.097,
        37.494
       ],
       [
        15.116,
        37.522
       ],
       [
        15.164,
        37.568
       ],
       [
        15.179,
        37.604
       ],
       [
        15.185,
        37.626
       ],
       [
        15.197,
        37.655
       ],
       [
        15.199,
        37.676
       ],
       [
        15.202,
        37.685
       ],
       [
        15.216,
        37.697
       ],
       [
        15.22,
        37.707
       ],
       [
        15.219,
        37.718
       ],
       [
        15.208,
        37.737
       ],
       [
        15.207,
        37.748
       ],
       [
        15.213,
        37.761
       ],
       [
        15.241,
        37.796
       ],
       [
        15.266,
        37.812
       ],
       [
        15.283,
        37.833
       ],
       [
        15.303,
        37.864
       ],
       [
        15.393,
        37.976
       ],
       [
        15.5,
        38.085
       ],
       [
        15.527,
        38.137
       ],
       [
        15.576,
        38.2
       ],
       [
        15.56,
        38.2
       ],
       [
        15.563,
        38.214
       ],
       [
        15.565,
        38.217
       ],
       [
        15.407,
        38.237
       ],
       [
        15.4,
        38.233
       ],
       [
        15.321,
        38.211
       ],
       [
        15.292,
        38.207
       ],
       [
        15.274,
        38.208
       ],
       [
        15.258,
        38.21
       ],
       [
        15.245,
        38.217
       ],
       [
        15.241,
        38.23
       ],
       [
        15.246,
        38.254
       ],
       [
        15.245,
        38.257
       ],
       [
        15.239,
        38.258
       ],
       [
        15.237,
        38.253
       ],
       [
        15.236,
        38.251
       ],
       [
        15.238,
        38.249
       ],
       [
        15.241,
        38.241
       ],
       [
        15.203,
        38.183
       ],
       [
        15.177,
        38.156
       ],
       [
        15.123,
        38.141
       ],
       [
        15.105,
        38.133
       ],
       [
        15.088,
        38.128
       ],
       [
        15.069,
        38.131
       ],
       [
        15.063,
        38.136
       ],
       [
        15.053,
        38.148
       ],
       [
        15.049,
        38.152
       ],
       [
        15.039,
        38.153
       ],
       [
        15.007,
        38.152
       ],
       [
        14.982,
        38.158
       ],
       [
        14.97,
        38.159
       ],
       [
        14.963,
        38.163
       ],
       [
        14.945,
        38.182
       ],
       [
        14.935,
        38.186
       ],
       [
        14.907,
        38.188
       ],
       [
        14.897,
        38.186
       ],
       [
        14.888,
        38.183
       ],
       [
        14.874,
        38.176
       ],
       [
        14.798,
        38.16
       ],
       [
        14.778,
        38.159
       ],
       [
        14.745,
        38.161
       ],
       [
        14.734,
        38.158
       ],
       [
        14.696,
        38.121
       ],
       [
        14.668,
        38.099
       ],
       [
        14.635,
        38.081
       ],
       [
        14.621,
        38.077
       ],
       [
        14.4,
        37.9
       ],
       [
        14.3,
        37.2
       ]
      ]
     ],
     [
      [
       [
        15.624,
        38.092
       ],
       [
        15.633,
        38.074
       ],
       [
        15.651,
        38.052
       ],
       [
        15.7,
        38.2
       ],
       [
        15.635,
        38.208
       ],
       [
        15.638,
        38.186
       ],
       [
        15.646,
        38.162
       ],
       [
        15.648,
        38.143
       ],
       [
        15.642,
        38.126
       ],
       [
        15.627,
        38.107
       ],
       [
        15.624,
        38.092
       ]
      ]
     ],
     [
      [
       [
        15.635,
        38.009
       ],
       [
        15.636,
        38.007
       ],
       [
        15.644,
        38.033
       ],
       [
        15.638,
        38.028
       ],
       [
        15.635,
        38.009
       ]
      ]
     ],
     [
      [
       [
        12.273,
        37.94
       ],
       [
        12.279,
        37.929
       ],
       [
        12.288,
        37.922
       ],
       [
        12.3,
        37.919
       ],
       [
        12.314,
        37.925
       ],
       [
        12.326,
        37.918
       ],
       [
        12.342,
        37.913
       ],
       [
        12.358,
        37.914
       ],
       [
        12.369,
        37.925
       ],
       [
        12.355,
        37.927
       ],
       [
        12.337,
        37.933
       ],
       [
        12.321,
        37.94
       ],
       [
        12.314,
        37.946
       ],
       [
        12.305,
        37.945
       ],
       [
        12.297,
        37.941
       ],
       [
        12.287,
        37.939
       ],
       [
        12.273,
        37.94
       ]
      ]
     ],
     [
      [
       [
        12.427,
        37.797
       ],
       [
        12.436,
        37.783
       ],
       [
        12.448,
        37.771
       ],
       [
        12.456,
        37.76
       ],
       [
        12.459,
        37.748
       ],
       [
        12.46,
        37.735
       ],
       [
        12.465,
        37.72
       ],
       [
        12.474,
        37.703
       ],
       [
        12.489,
        37.683
       ],
       [
        12.506,
        37.666
       ],
       [
        12.524,
        37.658
       ],
       [
        12.563,
        37.658
       ],
       [
        12.578,
        37.652
       ],
       [
        12.595,
        37.638
       ],
       [
        12.636,
        37.582
       ],
       [
        12.659,
        37.565
       ],
       [
        12.698,
        37.563
       ],
       [
        12.781,
        37.574
       ],
       [
        12.862,
        37.576
       ],
       [
        12.943,
        37.569
       ],
       [
        12.974,
        37.557
       ],
       [
        13,
        37.535
       ],
       [
        13.004,
        37.527
       ],
       [
        13.01,
        37.507
       ],
       [
        13.017,
        37.498
       ],
       [
        13.026,
        37.493
       ],
       [
        13.037,
        37.495
       ],
       [
        13.052,
        37.501
       ],
       [
        13.174,
        37.487
       ],
       [
        13.179,
        37.484
       ],
       [
        13.189,
        37.47
       ],
       [
        13.195,
        37.467
       ],
       [
        13.206,
        37.464
       ],
       [
        13.214,
        37.458
       ],
       [
        13.225,
        37.446
       ],
       [
        13.247,
        37.436
       ],
       [
        13.253,
        37.432
       ],
       [
        13.278,
        37.394
       ],
       [
        13.289,
        37.389
       ],
       [
        13.302,
        37.386
       ],
       [
        13.311,
        37.381
       ],
       [
        13.33,
        37.366
       ],
       [
        13.372,
        37.346
       ],
       [
        13.422,
        37.314
       ],
       [
        13.453,
        37.299
       ],
       [
        13.489,
        37.288
       ],
       [
        13.534,
        37.282
       ],
       [
        13.569,
        37.274
       ],
       [
        13.599,
        37.257
       ],
       [
        13.683,
        37.189
       ],
       [
        13.716,
        37.171
       ],
       [
        13.752,
        37.159
       ],
       [
        13.795,
        37.152
       ],
       [
        13.833,
        37.14
       ],
       [
        13.894,
        37.101
       ],
       [
        13.938,
        37.096
       ],
       [
        13.949,
        37.099
       ],
       [
        13.967,
        37.108
       ],
       [
        13.976,
        37.11
       ],
       [
        14.089,
        37.118
       ],
       [
        14.126,
        37.112
       ],
       [
        14.209,
        37.081
       ],
       [
        14.279,
        37.044
       ],
       [
        14.284,
        37.04
       ],
       [
        13.9,
        38
       ],
       [
        13.886,
        38.002
       ],
       [
        13.857,
        37.997
       ],
       [
        13.813,
        37.978
       ],
       [
        13.791,
        37.974
       ],
       [
        13.727,
        37.981
       ],
       [
        13.705,
        37.98
       ],
       [
        13.707,
        37.984
       ],
       [
        13.708,
        37.985
       ],
       [
        13.712,
        37.988
       ],
       [
        13.698,
        37.994
       ],
       [
        13.651,
        38.001
       ],
       [
        13.622,
        38.015
       ],
       [
        13.587,
        38.039
       ],
       [
        13.573,
        38.044
       ],
       [
        13.068,
        38.111
       ],
       [
        13.07,
        38.101
       ],
       [
        13.071,
        38.096
       ],
       [
        13.07,
        38.091
       ],
       [
        13.061,
        38.083
       ],
       [
        13.027,
        38.062
       ],
       [
        12.944,
        38.033
       ],
       [
        12.901,
        38.028
       ],
       [
        12.87,
        38.043
       ],
       [
        12.869,
        38.051
       ],
       [
        12.857,
        38.059
       ],
       [
        12.829,
        38.07
       ],
       [
        12.818,
        38.078
       ],
       [
        12.791,
        38.117
       ],
       [
        12.773,
        38.15
       ],
       [
        12.723,
        38.157
       ],
       [
        12.724,
        38.15
       ],
       [
        12.725,
        38.126
       ],
       [
        12.705,
        38.111
       ],
       [
        12.692,
        38.112
       ],
       [
        12.676,
        38.116
       ],
       [
        12.662,
        38.116
       ],
       [
        12.657,
        38.107
       ],
       [
        12.652,
        38.091
       ],
       [
        12.639,
        38.079
       ],
       [
        12.608,
        38.062
       ],
       [
        12.576,
        38.072
       ],
       [
        12.55,
        38.055
       ],
       [
        12.523,
        38.031
       ],
       [
        12.493,
        38.021
       ],
       [
        12.504,
        38.011
       ],
       [
        12.503,
        37.997
       ],
       [
        12.497,
        37.981
       ],
       [
        12.49,
        37.954
       ],
       [
        12.467,
        37.916
       ],
       [
        12.465,
        37.914
       ],
       [
        12.464,
        37.913
       ],
       [
        12.465,
        37.906
       ],
       [
        12.468,
        37.897
       ],
       [
        12.477,
        37.886
       ],
       [
        12.479,
        37.881
       ],
       [
        12.478,
        37.873
       ],
       [
        12.472,
        37.854
       ],
       [
        12.47,
        37.853
       ],
       [
        12.463,
        37.826
       ],
       [
        12.465,
        37.823
       ],
       [
        12.46,
        37.819
       ],
       [
        12.446,
        37.812
       ],
       [
        12.445,
        37.816
       ],
       [
        12.427,
        37.809
       ],
       [
        12.427,
        37.797
       ]
      ]
     ]
    ]
   }
  },
  {
   "type": "Feature",
   "properties": {
    "id": "sardinia_et_corsica",
    "layer": "admin_regions",
    "name_ko": "사르디니아·코르시카",
    "name_ancient": "Sardinia et Corsica",
    "valid_from": -227,
    "source": "book+web",
    "confidence": "medium"
   },
   "geometry": {
    "type": "MultiPolygon",
    "coordinates": [
     [
      [
       [
        8.169,
        40.592
       ],
       [
        8.177,
        40.607
       ],
       [
        8.193,
        40.617
       ],
       [
        8.216,
        40.612
       ],
       [
        8.205,
        40.598
       ],
       [
        8.196,
        40.578
       ],
       [
        8.216,
        40.571
       ],
       [
        8.267,
        40.594
       ],
       [
        8.292,
        40.595
       ],
       [
        8.312,
        40.578
       ],
       [
        8.32,
        40.556
       ],
       [
        8.324,
        40.531
       ],
       [
        8.332,
        40.511
       ],
       [
        8.35,
        40.502
       ],
       [
        8.366,
        40.492
       ],
       [
        8.38,
        40.469
       ],
       [
        8.39,
        40.442
       ],
       [
        8.395,
        40.424
       ],
       [
        8.384,
        40.372
       ],
       [
        8.386,
        40.352
       ],
       [
        8.408,
        40.338
       ],
       [
        8.416,
        40.345
       ],
       [
        8.441,
        40.331
       ],
       [
        8.463,
        40.315
       ],
       [
        8.476,
        40.292
       ],
       [
        8.476,
        40.262
       ],
       [
        8.46,
        40.216
       ],
       [
        8.463,
        40.163
       ],
       [
        8.467,
        40.145
       ],
       [
        8.485,
        40.118
       ],
       [
        8.49,
        40.104
       ],
       [
        8.487,
        40.09
       ],
       [
        8.479,
        40.074
       ],
       [
        8.469,
        40.062
       ],
       [
        8.46,
        40.057
       ],
       [
        8.452,
        40.056
       ],
       [
        8.435,
        40.051
       ],
       [
        8.404,
        40.05
       ],
       [
        8.401,
        40.05
       ],
       [
        8.385,
        40.042
       ],
       [
        8.377,
        40.034
       ],
       [
        8.38,
        40.03
       ],
       [
        8.395,
        40.036
       ],
       [
        8.407,
        40.022
       ],
       [
        8.407,
        40.01
       ],
       [
        8.395,
        39.988
       ],
       [
        8.394,
        39.977
       ],
       [
        8.401,
        39.94
       ],
       [
        8.4,
        39.933
       ],
       [
        8.396,
        39.927
       ],
       [
        8.394,
        39.92
       ],
       [
        8.395,
        39.913
       ],
       [
        8.398,
        39.905
       ],
       [
        8.401,
        39.904
       ],
       [
        8.404,
        39.903
       ],
       [
        8.418,
        39.892
       ],
       [
        8.431,
        39.885
       ],
       [
        8.438,
        39.877
       ],
       [
        8.429,
        39.866
       ],
       [
        8.435,
        39.858
       ],
       [
        8.445,
        39.884
       ],
       [
        8.452,
        39.893
       ],
       [
        8.463,
        39.899
       ],
       [
        8.45,
        39.899
       ],
       [
        8.446,
        39.898
       ],
       [
        8.442,
        39.893
       ],
       [
        8.435,
        39.899
       ],
       [
        8.463,
        39.914
       ],
       [
        8.494,
        39.912
       ],
       [
        8.523,
        39.899
       ],
       [
        8.545,
        39.879
       ],
       [
        8.554,
        39.864
       ],
       [
        8.555,
        39.853
       ],
       [
        8.552,
        39.821
       ],
       [
        8.549,
        39.807
       ],
       [
        8.541,
        39.789
       ],
       [
        8.53,
        39.773
       ],
       [
        8.518,
        39.763
       ],
       [
        8.525,
        39.766
       ],
       [
        8.531,
        39.77
       ],
       [
        8.535,
        39.776
       ],
       [
        8.539,
        39.783
       ],
       [
        8.545,
        39.783
       ],
       [
        8.535,
        39.771
       ],
       [
        8.52,
        39.755
       ],
       [
        8.507,
        39.738
       ],
       [
        8.504,
        39.722
       ],
       [
        8.514,
        39.714
       ],
       [
        8.566,
        39.701
       ],
       [
        8.538,
        39.696
       ],
       [
        8.517,
        39.702
       ],
       [
        8.5,
        39.716
       ],
       [
        8.469,
        39.755
       ],
       [
        8.46,
        39.76
       ],
       [
        8.446,
        39.763
       ],
       [
        8.444,
        39.757
       ],
       [
        8.446,
        39.731
       ],
       [
        8.442,
        39.722
       ],
       [
        8.442,
        39.715
       ],
       [
        8.447,
        39.704
       ],
       [
        8.45,
        39.659
       ],
       [
        8.462,
        39.617
       ],
       [
        8.464,
        39.598
       ],
       [
        8.456,
        39.584
       ],
       [
        8.463,
        39.577
       ],
       [
        8.452,
        39.558
       ],
       [
        8.435,
        39.525
       ],
       [
        8.422,
        39.509
       ],
       [
        8.395,
        39.481
       ],
       [
        8.387,
        39.47
       ],
       [
        8.386,
        39.466
       ],
       [
        8.389,
        39.462
       ],
       [
        8.404,
        39.436
       ],
       [
        8.405,
        39.427
       ],
       [
        8.401,
        39.412
       ],
       [
        8.396,
        39.404
       ],
       [
        8.378,
        39.388
       ],
       [
        8.374,
        39.379
       ],
       [
        8.382,
        39.36
       ],
       [
        8.417,
        39.339
       ],
       [
        8.416,
        39.324
       ],
       [
        8.432,
        39.302
       ],
       [
        8.426,
        39.283
       ],
       [
        8.377,
        39.238
       ],
       [
        8.372,
        39.231
       ],
       [
        8.373,
        39.222
       ],
       [
        8.38,
        39.208
       ],
       [
        8.386,
        39.204
       ],
       [
        8.393,
        39.204
       ],
       [
        8.399,
        39.201
       ],
       [
        8.401,
        39.19
       ],
       [
        8.402,
        39.181
       ],
       [
        8.405,
        39.174
       ],
       [
        8.41,
        39.169
       ],
       [
        8.416,
        39.166
       ],
       [
        8.413,
        39.176
       ],
       [
        8.419,
        39.177
       ],
       [
        8.428,
        39.173
       ],
       [
        8.435,
        39.166
       ],
       [
        8.439,
        39.153
       ],
       [
        8.438,
        39.128
       ],
       [
        8.442,
        39.118
       ],
       [
        8.454,
        39.125
       ],
       [
        8.465,
        39.119
       ],
       [
        8.473,
        39.107
       ],
       [
        8.478,
        39.09
       ],
       [
        8.482,
        39.084
       ],
       [
        8.483,
        39.08
       ],
       [
        8.504,
        39.091
       ],
       [
        8.518,
        39.083
       ],
       [
        8.509,
        39.068
       ],
       [
        8.504,
        39.063
       ],
       [
        8.521,
        39.061
       ],
       [
        8.544,
        39.051
       ],
       [
        8.552,
        39.057
       ],
       [
        8.56,
        39.057
       ],
       [
        8.572,
        39.014
       ],
       [
        8.58,
        38.961
       ],
       [
        8.603,
        38.965
       ],
       [
        8.615,
        38.948
       ],
       [
        8.615,
        38.931
       ],
       [
        9.043,
        39.048
       ],
       [
        9.045,
        39.051
       ],
       [
        9.044,
        39.058
       ],
       [
        9.032,
        39.07
       ],
       [
        9.025,
        39.086
       ],
       [
        9.019,
        39.104
       ],
       [
        9.016,
        39.124
       ],
       [
        9.018,
        39.146
       ],
       [
        9.026,
        39.165
       ],
       [
        9.039,
        39.179
       ],
       [
        9.079,
        39.212
       ],
       [
        9.08,
        39.217
       ],
       [
        9.08,
        39.225
       ],
       [
        9.075,
        39.23
       ],
       [
        9.05,
        39.226
       ],
       [
        9.039,
        39.228
       ],
       [
        9.038,
        39.227
       ],
       [
        9.035,
        39.232
       ],
       [
        9.027,
        39.236
       ],
       [
        9.021,
        39.24
       ],
       [
        9.026,
        39.249
       ],
       [
        9.026,
        39.256
       ],
       [
        9.013,
        39.261
       ],
       [
        9.014,
        39.264
       ],
       [
        9.024,
        39.265
       ],
       [
        9.039,
        39.262
       ],
       [
        9.048,
        39.256
       ],
       [
        9.056,
        39.248
       ],
       [
        9.064,
        39.243
       ],
       [
        9.073,
        39.249
       ],
       [
        9.114,
        39.211
       ],
       [
        9.137,
        39.194
       ],
       [
        9.166,
        39.187
       ],
       [
        9.17,
        39.193
       ],
       [
        9.181,
        39.207
       ],
       [
        9.197,
        39.221
       ],
       [
        9.216,
        39.228
       ],
       [
        9.252,
        39.225
       ],
       [
        9.271,
        39.221
       ],
       [
        9.285,
        39.214
       ],
       [
        9.292,
        39.221
       ],
       [
        9.3,
        39.215
       ],
       [
        9.312,
        39.208
       ],
       [
        9.326,
        39.203
       ],
       [
        9.337,
        39.201
       ],
       [
        9.345,
        39.196
       ],
       [
        9.368,
        39.177
       ],
       [
        9.378,
        39.173
       ],
       [
        9.383,
        39.169
       ],
       [
        9.407,
        39.147
       ],
       [
        9.576,
        39.194
       ],
       [
        9.576,
        39.194
       ],
       [
        9.569,
        39.199
       ],
       [
        9.566,
        39.205
       ],
       [
        9.573,
        39.214
       ],
       [
        9.568,
        39.238
       ],
       [
        9.582,
        39.266
       ],
       [
        9.604,
        39.287
       ],
       [
        9.606,
        39.324
       ],
       [
        9.604,
        39.326
       ],
       [
        9.6,
        39.341
       ],
       [
        9.602,
        39.356
       ],
       [
        9.609,
        39.381
       ],
       [
        9.648,
        40.16
       ],
       [
        9.631,
        40.196
       ],
       [
        9.629,
        40.206
       ],
       [
        9.625,
        40.248
       ],
       [
        9.626,
        40.263
       ],
       [
        9.635,
        40.283
       ],
       [
        9.646,
        40.296
       ],
       [
        9.655,
        40.302
       ],
       [
        9.679,
        40.785
       ],
       [
        9.676,
        40.789
       ],
       [
        9.67,
        40.801
       ],
       [
        9.669,
        40.79
       ],
       [
        9.658,
        40.8
       ],
       [
        9.662,
        40.809
       ],
       [
        9.674,
        40.814
       ],
       [
        9.681,
        40.813
       ],
       [
        9.681,
        40.829
       ],
       [
        9.681,
        40.83
       ],
       [
        9.682,
        40.83
       ],
       [
        9.683,
        40.865
       ],
       [
        9.683,
        40.865
       ],
       [
        9.672,
        40.859
       ],
       [
        9.663,
        40.858
       ],
       [
        9.658,
        40.864
       ],
       [
        9.656,
        40.876
       ],
       [
        9.65,
        40.879
       ],
       [
        9.614,
        40.893
       ],
       [
        9.614,
        40.9
       ],
       [
        9.624,
        40.901
       ],
       [
        9.632,
        40.905
       ],
       [
        9.637,
        40.912
       ],
       [
        9.642,
        40.921
       ],
       [
        9.623,
        40.924
       ],
       [
        9.608,
        40.918
       ],
       [
        9.593,
        40.91
       ],
       [
        9.573,
        40.906
       ],
       [
        9.567,
        40.908
       ],
       [
        9.549,
        40.917
       ],
       [
        9.539,
        40.921
       ],
       [
        9.529,
        40.919
       ],
       [
        9.52,
        40.915
       ],
       [
        9.512,
        40.915
       ],
       [
        9.504,
        40.927
       ],
       [
        9.513,
        40.928
       ],
       [
        9.511,
        40.929
       ],
       [
        9.512,
        40.934
       ],
       [
        9.557,
        40.931
       ],
       [
        9.571,
        40.935
       ],
       [
        9.566,
        40.949
       ],
       [
        9.579,
        40.962
       ],
       [
        9.583,
        40.98
       ],
       [
        9.588,
        40.996
       ],
       [
        9.604,
        41.003
       ],
       [
        9.62,
        40.999
       ],
       [
        9.636,
        40.992
       ],
       [
        9.651,
        40.991
       ],
       [
        9.663,
        41.003
       ],
       [
        9.644,
        41.012
       ],
       [
        9.616,
        41.02
       ],
       [
        9.588,
        41.021
       ],
       [
        9.573,
        41.009
       ],
       [
        9.569,
        41.01
       ],
       [
        9.566,
        41.011
       ],
       [
        9.56,
        41.016
       ],
       [
        9.558,
        41.014
       ],
       [
        9.559,
        41.011
       ],
       [
        9.558,
        41.009
       ],
       [
        9.553,
        41.009
       ],
       [
        9.558,
        41.025
       ],
       [
        9.554,
        41.035
       ],
       [
        9.543,
        41.037
       ],
       [
        9.525,
        41.031
       ],
       [
        9.532,
        41.016
       ],
       [
        9.512,
        41.016
       ],
       [
        9.521,
        41.032
       ],
       [
        9.539,
        41.092
       ],
       [
        9.541,
        41.087
       ],
       [
        9.544,
        41.083
       ],
       [
        9.546,
        41.078
       ],
       [
        9.556,
        41.088
       ],
       [
        9.562,
        41.097
       ],
       [
        9.565,
        41.107
       ],
       [
        9.566,
        41.119
       ],
       [
        9.563,
        41.121
       ],
       [
        9.562,
        41.121
       ],
       [
        9.561,
        41.122
       ],
       [
        9.56,
        41.126
       ],
       [
        9.553,
        41.126
       ],
       [
        9.546,
        41.121
       ],
       [
        9.541,
        41.123
       ],
       [
        9.534,
        41.128
       ],
       [
        9.525,
        41.133
       ],
       [
        9.532,
        41.14
       ],
       [
        9.524,
        41.15
       ],
       [
        9.518,
        41.149
       ],
       [
        9.514,
        41.144
       ],
       [
        9.508,
        41.14
       ],
       [
        9.494,
        41.142
       ],
       [
        9.481,
        41.146
       ],
       [
        9.469,
        41.146
       ],
       [
        9.457,
        41.14
       ],
       [
        9.462,
        41.138
       ],
       [
        9.465,
        41.134
       ],
       [
        9.467,
        41.131
       ],
       [
        9.47,
        41.126
       ],
       [
        9.46,
        41.121
       ],
       [
        9.454,
        41.112
       ],
       [
        9.443,
        41.092
       ],
       [
        9.437,
        41.115
       ],
       [
        9.437,
        41.125
       ],
       [
        9.443,
        41.133
       ],
       [
        9.433,
        41.141
       ],
       [
        9.427,
        41.149
       ],
       [
        9.42,
        41.156
       ],
       [
        9.409,
        41.16
       ],
       [
        9.412,
        41.165
       ],
       [
        9.414,
        41.168
       ],
       [
        9.417,
        41.171
       ],
       [
        9.422,
        41.175
       ],
       [
        9.422,
        41.181
       ],
       [
        9.412,
        41.181
       ],
       [
        9.404,
        41.182
       ],
       [
        9.397,
        41.184
       ],
       [
        9.388,
        41.188
       ],
       [
        9.388,
        41.181
       ],
       [
        9.352,
        41.207
       ],
       [
        9.335,
        41.212
       ],
       [
        9.333,
        41.188
       ],
       [
        9.317,
        41.196
       ],
       [
        9.313,
        41.201
       ],
       [
        9.305,
        41.198
       ],
       [
        9.3,
        41.196
       ],
       [
        9.285,
        41.195
       ],
       [
        9.285,
        41.201
       ],
       [
        9.288,
        41.206
       ],
       [
        9.289,
        41.209
       ],
       [
        9.285,
        41.222
       ],
       [
        9.278,
        41.222
       ],
       [
        9.275,
        41.212
       ],
       [
        9.274,
        41.205
       ],
       [
        9.275,
        41.2
       ],
       [
        9.278,
        41.195
       ],
       [
        9.267,
        41.202
       ],
       [
        9.268,
        41.233
       ],
       [
        9.17,
        41.241
       ],
       [
        9.163,
        41.225
       ],
       [
        9.163,
        41.184
       ],
       [
        9.158,
        41.169
       ],
       [
        9.142,
        41.153
       ],
       [
        9.136,
        41.16
       ],
       [
        9.108,
        41.139
       ],
       [
        9.093,
        41.135
       ],
       [
        9.025,
        41.129
       ],
       [
        9.006,
        41.122
       ],
       [
        8.991,
        41.097
       ],
       [
        8.976,
        41.083
       ],
       [
        8.959,
        41.07
       ],
       [
        8.946,
        41.065
       ],
       [
        8.94,
        41.061
       ],
       [
        8.929,
        41.044
       ],
       [
        8.923,
        41.037
       ],
       [
        8.913,
        41.033
       ],
       [
        8.881,
        41.024
       ],
       [
        8.885,
        41.022
       ],
       [
        8.886,
        41.021
       ],
       [
        8.886,
        41.02
       ],
       [
        8.888,
        41.016
       ],
       [
        8.875,
        41.008
       ],
       [
        8.84,
        40.962
       ],
       [
        8.823,
        40.947
       ],
       [
        8.764,
        40.914
       ],
       [
        8.751,
        40.919
       ],
       [
        8.734,
        40.921
       ],
       [
        8.709,
        40.921
       ],
       [
        8.641,
        40.896
       ],
       [
        8.634,
        40.882
       ],
       [
        8.618,
        40.866
       ],
       [
        8.598,
        40.853
       ],
       [
        8.521,
        40.827
       ],
       [
        8.501,
        40.824
       ],
       [
        8.478,
        40.826
       ],
       [
        8.422,
        40.839
       ],
       [
        8.31,
        40.851
       ],
       [
        8.278,
        40.865
       ],
       [
        8.233,
        40.91
       ],
       [
        8.229,
        40.922
       ],
       [
        8.232,
        40.935
       ],
       [
        8.236,
        40.946
       ],
       [
        8.236,
        40.955
       ],
       [
        8.231,
        40.961
       ],
       [
        8.207,
        40.915
       ],
       [
        8.21,
        40.914
       ],
       [
        8.216,
        40.9
       ],
       [
        8.215,
        40.881
       ],
       [
        8.21,
        40.865
       ],
       [
        8.194,
        40.836
       ],
       [
        8.179,
        40.695
       ],
       [
        8.192,
        40.694
       ],
       [
        8.197,
        40.691
       ],
       [
        8.196,
        40.685
       ],
       [
        8.191,
        40.68
       ],
       [
        8.188,
        40.68
       ],
       [
        8.185,
        40.657
       ],
       [
        8.174,
        40.642
       ],
       [
        8.169,
        40.592
       ]
      ]
     ],
     [
      [
       [
        8.279,
        41.058
       ],
       [
        8.332,
        41.065
       ],
       [
        8.341,
        41.074
       ],
       [
        8.345,
        41.086
       ],
       [
        8.342,
        41.098
       ],
       [
        8.332,
        41.106
       ],
       [
        8.328,
        41.112
       ],
       [
        8.326,
        41.118
       ],
       [
        8.326,
        41.126
       ],
       [
        8.313,
        41.119
       ],
       [
        8.308,
        41.114
       ],
       [
        8.306,
        41.109
       ],
       [
        8.303,
        41.106
       ],
       [
        8.279,
        41.058
       ]
      ]
     ],
     [
      [
       [
        8.417,
        39.107
       ],
       [
        8.452,
        39.019
       ],
       [
        8.454,
        39.028
       ],
       [
        8.463,
        39.042
       ],
       [
        8.459,
        39.05
       ],
       [
        8.464,
        39.057
       ],
       [
        8.484,
        39.07
       ],
       [
        8.479,
        39.072
       ],
       [
        8.477,
        39.071
       ],
       [
        8.476,
        39.07
       ],
       [
        8.47,
        39.066
       ],
       [
        8.463,
        39.065
       ],
       [
        8.458,
        39.068
       ],
       [
        8.456,
        39.074
       ],
       [
        8.445,
        39.103
       ],
       [
        8.418,
        39.107
       ],
       [
        8.417,
        39.107
       ]
      ]
     ],
     [
      [
       [
        9.137,
        41.241
       ],
       [
        9.147,
        41.23
       ],
       [
        9.153,
        41.234
       ],
       [
        9.157,
        41.237
       ],
       [
        9.156,
        41.238
       ],
       [
        9.158,
        41.242
       ],
       [
        9.139,
        41.243
       ],
       [
        9.137,
        41.241
       ]
      ]
     ],
     [
      [
       [
        9.373,
        41.222
       ],
       [
        9.377,
        41.213
       ],
       [
        9.395,
        41.211
       ],
       [
        9.435,
        41.217
       ],
       [
        9.434,
        41.22
       ],
       [
        9.373,
        41.225
       ],
       [
        9.373,
        41.222
       ]
      ]
     ],
     [
      [
       [
        9.394,
        41.195
       ],
       [
        9.396,
        41.19
       ],
       [
        9.402,
        41.19
       ],
       [
        9.405,
        41.188
       ],
       [
        9.408,
        41.185
       ],
       [
        9.417,
        41.2
       ],
       [
        9.408,
        41.207
       ],
       [
        9.406,
        41.203
       ],
       [
        9.398,
        41.199
       ],
       [
        9.394,
        41.195
       ]
      ]
     ],
     [
      [
       [
        9.437,
        41.186
       ],
       [
        9.442,
        41.183
       ],
       [
        9.449,
        41.186
       ],
       [
        9.456,
        41.181
       ],
       [
        9.464,
        41.173
       ],
       [
        9.47,
        41.172
       ],
       [
        9.475,
        41.179
       ],
       [
        9.474,
        41.184
       ],
       [
        9.471,
        41.19
       ],
       [
        9.479,
        41.217
       ],
       [
        9.446,
        41.22
       ],
       [
        9.444,
        41.211
       ],
       [
        9.448,
        41.205
       ],
       [
        9.437,
        41.186
       ]
      ]
     ],
     [
      [
       [
        9.596,
        41.073
       ],
       [
        9.598,
        41.07
       ],
       [
        9.602,
        41.069
       ],
       [
        9.603,
        41.069
       ],
       [
        9.605,
        41.071
       ],
       [
        9.606,
        41.076
       ],
       [
        9.606,
        41.079
       ],
       [
        9.601,
        41.078
       ],
       [
        9.596,
        41.076
       ],
       [
        9.596,
        41.073
       ]
      ]
     ],
     [
      [
       [
        9.676,
        40.89
       ],
       [
        9.68,
        40.891
       ],
       [
        9.685,
        40.891
       ],
       [
        9.685,
        40.897
       ],
       [
        9.678,
        40.893
       ],
       [
        9.676,
        40.89
       ]
      ]
     ],
     [
      [
       [
        8.56,
        42.154
       ],
       [
        8.569,
        42.155
       ],
       [
        8.578,
        42.154
       ],
       [
        8.586,
        42.151
       ],
       [
        8.594,
        42.147
       ],
       [
        8.591,
        42.143
       ],
       [
        8.586,
        42.133
       ],
       [
        8.607,
        42.134
       ],
       [
        8.63,
        42.13
       ],
       [
        8.648,
        42.122
       ],
       [
        8.655,
        42.109
       ],
       [
        8.661,
        42.105
       ],
       [
        8.689,
        42.111
       ],
       [
        8.699,
        42.109
       ],
       [
        8.706,
        42.1
       ],
       [
        8.723,
        42.072
       ],
       [
        8.739,
        42.063
       ],
       [
        8.745,
        42.057
       ],
       [
        8.743,
        42.044
       ],
       [
        8.738,
        42.044
       ],
       [
        8.711,
        42.033
       ],
       [
        8.706,
        42.03
       ],
       [
        8.684,
        42.026
       ],
       [
        8.665,
        42.014
       ],
       [
        8.656,
        42.003
       ],
       [
        8.669,
        41.996
       ],
       [
        8.655,
        41.979
       ],
       [
        8.636,
        41.973
       ],
       [
        8.586,
        41.969
       ],
       [
        8.614,
        41.944
       ],
       [
        8.619,
        41.93
       ],
       [
        8.607,
        41.914
       ],
       [
        8.614,
        41.901
       ],
       [
        8.63,
        41.909
       ],
       [
        8.648,
        41.912
       ],
       [
        8.689,
        41.914
       ],
       [
        8.71,
        41.919
       ],
       [
        8.744,
        41.933
       ],
       [
        8.764,
        41.934
       ],
       [
        8.775,
        41.932
       ],
       [
        8.781,
        41.929
       ],
       [
        8.786,
        41.923
       ],
       [
        8.792,
        41.914
       ],
       [
        8.803,
        41.907
       ],
       [
        8.805,
        41.907
       ],
       [
        8.803,
        41.901
       ],
       [
        8.795,
        41.892
       ],
       [
        8.792,
        41.887
       ],
       [
        8.79,
        41.887
       ],
       [
        8.778,
        41.873
       ],
       [
        8.782,
        41.874
       ],
       [
        8.786,
        41.868
       ],
       [
        8.789,
        41.861
       ],
       [
        8.792,
        41.859
       ],
       [
        8.784,
        41.854
       ],
       [
        8.751,
        41.846
       ],
       [
        8.762,
        41.844
       ],
       [
        8.772,
        41.84
       ],
       [
        8.78,
        41.834
       ],
       [
        8.785,
        41.824
       ],
       [
        8.752,
        41.81
       ],
       [
        8.732,
        41.805
       ],
       [
        8.709,
        41.805
       ],
       [
        8.709,
        41.797
       ],
       [
        8.72,
        41.792
       ],
       [
        8.722,
        41.782
       ],
       [
        8.718,
        41.772
       ],
       [
        8.709,
        41.764
       ],
       [
        8.696,
        41.758
       ],
       [
        8.668,
        41.755
       ],
       [
        8.655,
        41.75
       ],
       [
        8.668,
        41.748
       ],
       [
        8.678,
        41.744
       ],
       [
        8.689,
        41.742
       ],
       [
        8.703,
        41.742
       ],
       [
        8.698,
        41.733
       ],
       [
        8.696,
        41.729
       ],
       [
        8.719,
        41.731
       ],
       [
        8.76,
        41.743
       ],
       [
        8.785,
        41.742
       ],
       [
        8.776,
        41.722
       ],
       [
        8.789,
        41.713
       ],
       [
        8.812,
        41.709
       ],
       [
        8.836,
        41.709
       ],
       [
        8.899,
        41.695
       ],
       [
        8.923,
        41.695
       ],
       [
        8.911,
        41.684
       ],
       [
        8.897,
        41.678
       ],
       [
        8.886,
        41.671
       ],
       [
        8.881,
        41.657
       ],
       [
        8.873,
        41.651
       ],
       [
        8.819,
        41.633
       ],
       [
        8.802,
        41.639
       ],
       [
        8.792,
        41.625
       ],
       [
        8.785,
        41.605
       ],
       [
        8.778,
        41.592
       ],
       [
        8.793,
        41.587
       ],
       [
        8.796,
        41.581
       ],
       [
        8.792,
        41.561
       ],
       [
        8.797,
        41.557
       ],
       [
        8.81,
        41.553
       ],
       [
        8.824,
        41.55
       ],
       [
        8.833,
        41.551
       ],
       [
        8.841,
        41.547
       ],
       [
        8.853,
        41.544
       ],
       [
        8.853,
        41.538
       ],
       [
        8.84,
        41.531
       ],
       [
        8.848,
        41.526
       ],
       [
        8.856,
        41.525
       ],
       [
        8.864,
        41.525
       ],
       [
        8.874,
        41.523
       ],
       [
        8.879,
        41.519
       ],
       [
        8.881,
        41.515
       ],
       [
        8.884,
        41.511
       ],
       [
        8.907,
        41.507
       ],
       [
        8.917,
        41.502
       ],
       [
        8.925,
        41.495
       ],
       [
        8.936,
        41.489
       ],
       [
        8.951,
        41.492
       ],
       [
        8.969,
        41.49
       ],
       [
        9.285,
        41.595
       ],
       [
        9.279,
        41.598
       ],
       [
        9.284,
        41.608
       ],
       [
        9.294,
        41.618
       ],
       [
        9.292,
        41.626
       ],
       [
        9.304,
        41.628
       ],
       [
        9.308,
        41.628
       ],
       [
        9.403,
        41.943
       ],
       [
        9.403,
        41.953
       ],
       [
        9.408,
        41.961
       ],
       [
        9.532,
        42.374
       ],
       [
        9.532,
        42.374
       ],
       [
        9.533,
        42.393
       ],
       [
        9.535,
        42.408
       ],
       [
        9.54,
        42.422
       ],
       [
        9.546,
        42.435
       ],
       [
        9.533,
        42.456
       ],
       [
        9.53,
        42.486
       ],
       [
        9.532,
        42.544
       ],
       [
        9.528,
        42.564
       ],
       [
        9.519,
        42.581
       ],
       [
        9.49,
        42.613
       ],
       [
        9.505,
        42.587
       ],
       [
        9.509,
        42.58
       ],
       [
        9.512,
        42.565
       ],
       [
        9.485,
        42.574
       ],
       [
        9.477,
        42.579
       ],
       [
        9.471,
        42.587
       ],
       [
        9.468,
        42.595
       ],
       [
        9.465,
        42.602
       ],
       [
        9.457,
        42.606
       ],
       [
        9.461,
        42.615
       ],
       [
        9.462,
        42.62
       ],
       [
        9.459,
        42.625
       ],
       [
        9.457,
        42.634
       ],
       [
        9.455,
        42.635
       ],
       [
        9.45,
        42.636
       ],
       [
        9.445,
        42.638
       ],
       [
        9.443,
        42.641
       ],
       [
        9.443,
        42.645
       ],
       [
        9.446,
        42.649
       ],
       [
        9.449,
        42.651
       ],
       [
        9.45,
        42.654
       ],
       [
        9.449,
        42.683
       ],
       [
        9.451,
        42.697
       ],
       [
        9.45,
        42.709
       ],
       [
        9.483,
        42.802
       ],
       [
        9.484,
        42.832
       ],
       [
        9.466,
        42.924
       ],
       [
        9.468,
        42.931
       ],
       [
        9.459,
        42.952
       ],
       [
        9.459,
        42.952
       ],
       [
        9.454,
        42.964
       ],
       [
        9.454,
        42.965
       ],
       [
        9.439,
        43.002
       ],
       [
        9.436,
        43.004
       ],
       [
        9.422,
        43.017
       ],
       [
        9.404,
        43.012
       ],
       [
        9.363,
        43.012
       ],
       [
        9.347,
        43.004
       ],
       [
        9.342,
        42.991
       ],
       [
        9.343,
        42.973
       ],
       [
        9.35,
        42.957
       ],
       [
        9.36,
        42.949
       ],
       [
        9.357,
        42.941
       ],
       [
        9.356,
        42.937
       ],
       [
        9.357,
        42.934
       ],
       [
        9.36,
        42.929
       ],
       [
        9.337,
        42.91
       ],
       [
        9.33,
        42.904
       ],
       [
        9.326,
        42.894
       ],
       [
        9.326,
        42.885
       ],
       [
        9.333,
        42.876
       ],
       [
        9.333,
        42.867
       ],
       [
        9.306,
        42.839
       ],
       [
        9.322,
        42.824
       ],
       [
        9.335,
        42.808
       ],
       [
        9.341,
        42.79
       ],
       [
        9.333,
        42.771
       ],
       [
        9.343,
        42.749
       ],
       [
        9.328,
        42.72
       ],
       [
        9.292,
        42.675
       ],
       [
        9.285,
        42.675
       ],
       [
        9.276,
        42.694
       ],
       [
        9.271,
        42.702
       ],
       [
        9.265,
        42.709
       ],
       [
        9.258,
        42.714
       ],
       [
        9.237,
        42.723
       ],
       [
        9.185,
        42.733
       ],
       [
        9.176,
        42.733
       ],
       [
        9.165,
        42.735
       ],
       [
        9.141,
        42.735
       ],
       [
        9.118,
        42.732
       ],
       [
        9.107,
        42.726
       ],
       [
        9.053,
        42.682
       ],
       [
        9.05,
        42.662
       ],
       [
        9.018,
        42.65
       ],
       [
        8.907,
        42.632
       ],
       [
        8.843,
        42.608
       ],
       [
        8.817,
        42.607
       ],
       [
        8.813,
        42.6
       ],
       [
        8.813,
        42.6
       ],
       [
        8.807,
        42.585
       ],
       [
        8.799,
        42.572
       ],
       [
        8.791,
        42.565
       ],
       [
        8.632,
        42.31
       ],
       [
        8.632,
        42.309
       ],
       [
        8.635,
        42.305
       ],
       [
        8.672,
        42.291
       ],
       [
        8.674,
        42.289
       ],
       [
        8.689,
        42.281
       ],
       [
        8.688,
        42.273
       ],
       [
        8.685,
        42.272
       ],
       [
        8.681,
        42.273
       ],
       [
        8.675,
        42.271
       ],
       [
        8.665,
        42.265
       ],
       [
        8.651,
        42.26
       ],
       [
        8.611,
        42.255
       ],
       [
        8.601,
        42.251
       ],
       [
        8.594,
        42.246
       ],
       [
        8.59,
        42.245
       ],
       [
        8.568,
        42.208
       ],
       [
        8.578,
        42.204
       ],
       [
        8.582,
        42.195
       ],
       [
        8.578,
        42.185
       ],
       [
        8.566,
        42.181
       ],
       [
        8.566,
        42.175
       ],
       [
        8.594,
        42.175
       ],
       [
        8.594,
        42.167
       ],
       [
        8.578,
        42.159
       ],
       [
        8.57,
        42.156
       ],
       [
        8.56,
        42.154
       ]
      ]
     ],
     [
      [
       [
        9.457,
        42.647
       ],
       [
        9.477,
        42.619
       ],
       [
        9.477,
        42.62
       ],
       [
        9.482,
        42.62
       ],
       [
        9.457,
        42.647
       ]
      ]
     ]
    ]
   }
  }
 ]
}
