{
  "type": "FeatureCollection",
  "features": [
    { "type": "Feature", "properties": { "id": "roma", "layer": "settlements", "name_ko": "로마", "name_ancient": "Roma", "name_modern": "Roma", "rank": 1, "minzoom": 0, "source": "book", "confidence": "high", "valid_from": -753, "resource": "곡물", "terrain": "구릉" }, "geometry": { "type": "Point", "coordinates": [12.48, 41.89] } },
    { "type": "Feature", "properties": { "id": "carthago", "layer": "settlements", "name_ko": "카르타고", "name_ancient": "Carthago", "name_modern": "Tunis", "rank": 1, "minzoom": 0, "source": "book", "confidence": "high", "resource": "포도주", "terrain": "해안 평야" }, "geometry": { "type": "Point", "coordinates": [10.32, 36.86] } },
    { "type": "Feature", "properties": { "id": "syracusae", "layer": "settlements", "name_ko": "시라쿠사", "name_ancient": "Syracusae", "name_modern": "Siracusa", "rank": 2, "minzoom": 5, "source": "book+web", "confidence": "high", "valid_from": -733, "resource": "곡물", "terrain": "천연 항구" }, "geometry": { "type": "Point", "coordinates": [15.29, 37.07] } },
    { "type": "Feature", "properties": { "id": "carthago_nova", "layer": "settlements", "name_ko": "신카르타고", "name_ancient": "Carthago Nova", "name_modern": "Cartagena", "rank": 2, "minzoom": 5, "source": "web", "confidence": "medium", "valid_from": -227, "note": "하스드루발이 건설(BC227) — 타임라인 중반 등장", "resource": "은", "terrain": "해안 평야" }, "geometry": { "type": "Point", "coordinates": [-0.98, 37.60] } },
    { "type": "Feature", "properties": { "id": "saguntum", "layer": "settlements", "name_ko": "사군툼", "name_ancient": "Saguntum", "name_modern": "Sagunto", "rank": 2, "minzoom": 5, "source": "web", "confidence": "medium", "note": "카르타고 영역 내 로마 동맹 — 전쟁 도화선", "resource": "올리브", "terrain": "해안 평야" }, "geometry": { "type": "Point", "coordinates": [-0.28, 39.68] } },
    { "type": "Feature", "properties": { "id": "capua", "layer": "settlements", "name_ko": "카푸아", "name_ancient": "Capua", "name_modern": "Capua", "rank": 2, "minzoom": 5, "source": "book", "confidence": "high", "resource": "곡물", "terrain": "화산 평야" }, "geometry": { "type": "Point", "coordinates": [14.25, 41.10] } },
    { "type": "Feature", "properties": { "id": "tarentum", "layer": "settlements", "name_ko": "타렌툼", "name_ancient": "Tarentum", "name_modern": "Taranto", "rank": 2, "minzoom": 5, "source": "book", "confidence": "high", "resource": "어업", "terrain": "해안 평야" }, "geometry": { "type": "Point", "coordinates": [17.24, 40.47] } },
    { "type": "Feature", "properties": { "id": "neapolis", "layer": "settlements", "name_ko": "네아폴리스", "name_ancient": "Neapolis", "name_modern": "Napoli", "rank": 2, "minzoom": 5, "source": "book", "confidence": "high", "resource": "곡물", "terrain": "해안 평야" }, "geometry": { "type": "Point", "coordinates": [14.27, 40.84] } },
    { "type": "Feature", "properties": { "id": "gades", "layer": "settlements", "name_ko": "가데스", "name_ancient": "Gades", "name_modern": "Cadiz", "rank": 2, "minzoom": 5, "source": "book", "confidence": "medium", "resource": "포도주", "terrain": "해안 평야" }, "geometry": { "type": "Point", "coordinates": [-6.29, 36.53] } },
    { "type": "Feature", "properties": { "id": "massalia", "layer": "settlements", "name_ko": "마살리아", "name_ancient": "Massalia", "name_modern": "Marseille", "rank": 2, "minzoom": 5, "source": "book+web", "confidence": "high", "resource": "올리브", "terrain": "해안 평야" }, "geometry": { "type": "Point", "coordinates": [5.37, 43.30] } }
  ]
}
