{
 "type": "FeatureCollection",
 "features": [
  {
   "type": "Feature",
   "properties": {
    "id": "latium@-264",
    "layer": "territory",
    "region": "latium",
    "name_ko": "라티움",
    "actor": "rome",
    "valid_from": -264,
    "valid_to": 1000000,
    "source": "book+web",
    "confidence": "medium"
   },
   "geometry": {
    "type": "Polygon",
    "coordinates": [
     [
      [
       11.9,
       42.2
      ],
      [
       13,
       42.2
      ],
      [
       13.2,
       41.3
      ],
      [
       12.6,
       41
      ],
      [
       11.7,
       41.3
      ],
      [
       11.6,
       41.9
      ],
      [
       11.9,
       42.2
      ]
     ]
    ]
   }
  },
  {
   "type": "Feature",
   "properties": {
    "id": "etruria@-264",
    "layer": "territory",
    "region": "etruria",
    "name_ko": "에트루리아",
    "actor": "rome",
    "valid_from": -264,
    "valid_to": 1000000,
    "source": "book+web",
    "confidence": "medium"
   },
   "geometry": {
    "type": "Polygon",
    "coordinates": [
     [
      [
       10,
       43.7
      ],
      [
       11.9,
       43.7
      ],
      [
       12.2,
       42.6
      ],
      [
       11.7,
       42.1
      ],
      [
       10.4,
       42.3
      ],
      [
       9.9,
       43
      ],
      [
       10,
       43.7
      ]
     ]
    ]
   }
  },
  {
   "type": "Feature",
   "properties": {
    "id": "campania@-264",
    "layer": "territory",
    "region": "campania",
    "name_ko": "캄파니아",
    "actor": "rome",
    "valid_from": -264,
    "valid_to": 1000000,
    "source": "book+web",
    "confidence": "medium"
   },
   "geometry": {
    "type": "Polygon",
    "coordinates": [
     [
      [
       13.6,
       41.3
      ],
      [
       14.9,
       41.3
      ],
      [
       15.3,
       40.4
      ],
      [
       14.6,
       40.1
      ],
      [
       13.9,
       40.3
      ],
      [
       13.7,
       40.9
      ],
      [
       13.6,
       41.3
      ]
     ]
    ]
   }
  },
  {
   "type": "Feature",
   "properties": {
    "id": "samnium@-264",
    "layer": "territory",
    "region": "samnium",
    "name_ko": "삼니움",
    "actor": "rome",
    "valid_from": -264,
    "valid_to": 1000000,
    "source": "book+web",
    "confidence": "medium"
   },
   "geometry": {
    "type": "Polygon",
    "coordinates": [
     [
      [
       14,
       41.9
      ],
      [
       14.9,
       42
      ],
      [
       15.2,
       41.3
      ],
      [
       14.7,
       41
      ],
      [
       14,
       41.2
      ],
      [
       14,
       41.9
      ]
     ]
    ]
   }
  },
  {
   "type": "Feature",
   "properties": {
    "id": "apulia@-264",
    "layer": "territory",
    "region": "apulia",
    "name_ko": "아풀리아",
    "actor": "rome",
    "valid_from": -264,
    "valid_to": 1000000,
    "source": "book+web",
    "confidence": "medium"
   },
   "geometry": {
    "type": "Polygon",
    "coordinates": [
     [
      [
       15.4,
       41.9
      ],
      [
       16.9,
       41.8
      ],
      [
       17.9,
       41
      ],
      [
       18.4,
       40
      ],
      [
       17.3,
       39.8
      ],
      [
       16,
       40.5
      ],
      [
       15.3,
       41.2
      ],
      [
       15.4,
       41.9
      ]
     ]
    ]
   }
  },
  {
   "type": "Feature",
   "properties": {
    "id": "calabria@-264",
    "layer": "territory",
    "region": "calabria",
    "name_ko": "칼라브리아",
    "actor": "rome",
    "valid_from": -264,
    "valid_to": 1000000,
    "source": "book+web",
    "confidence": "medium"
   },
   "geometry": {
    "type": "Polygon",
    "coordinates": [
     [
      [
       16.5,
       39.5
      ],
      [
       17.1,
       39
      ],
      [
       16.5,
       38.1
      ],
      [
       15.9,
       37.9
      ],
      [
       15.6,
       38.5
      ],
      [
       15.9,
       39.2
      ],
      [
       16.5,
       39.5
      ]
     ]
    ]
   }
  },
  {
   "type": "Feature",
   "properties": {
    "id": "magna_graecia@-264",
    "layer": "territory",
    "region": "magna_graecia",
    "name_ko": "마그나 그라이키아",
    "actor": "rome",
    "valid_from": -264,
    "valid_to": 1000000,
    "source": "book+web",
    "confidence": "medium"
   },
   "geometry": {
    "type": "Polygon",
    "coordinates": [
     [
      [
       17.2,
       40.3
      ],
      [
       17.6,
       39.5
      ],
      [
       16.9,
       38.2
      ],
      [
       16.2,
       38
      ],
      [
       16.6,
       39
      ],
      [
       16.9,
       40
      ],
      [
       17.2,
       40.3
      ]
     ]
    ]
   }
  },
  {
   "type": "Feature",
   "properties": {
    "id": "cisalpine_gaul@-218",
    "layer": "territory",
    "region": "cisalpine_gaul",
    "name_ko": "갈리아 키살피나",
    "actor": "rome",
    "valid_from": -218,
    "valid_to": 1000000,
    "source": "book+web",
    "confidence": "medium"
   },
   "geometry": {
    "type": "Polygon",
    "coordinates": [
     [
      [
       7.6,
       46
      ],
      [
       12.4,
       46
      ],
      [
       12.6,
       44.9
      ],
      [
       11,
       44.3
      ],
      [
       8,
       44.4
      ],
      [
       7.4,
       45.2
      ],
      [
       7.6,
       46
      ]
     ]
    ]
   }
  },
  {
   "type": "Feature",
   "properties": {
    "id": "sicily_east@-264",
    "layer": "territory",
    "region": "sicily_east",
    "name_ko": "시칠리아 동부",
    "actor": "carthage",
    "valid_from": -264,
    "valid_to": -241,
    "source": "book+web",
    "confidence": "medium"
   },
   "geometry": {
    "type": "Polygon",
    "coordinates": [
     [
      [
       14.9,
       38.3
      ],
      [
       15.7,
       38.2
      ],
      [
       15.3,
       37
      ],
      [
       14.9,
       36.7
      ],
      [
       14.3,
       37.2
      ],
      [
       14.4,
       37.9
      ],
      [
       14.9,
       38.3
      ]
     ]
    ]
   }
  },
  {
   "type": "Feature",
   "properties": {
    "id": "sicily_east@-241",
    "layer": "territory",
    "region": "sicily_east",
    "name_ko": "시칠리아 동부",
    "actor": "rome",
    "valid_from": -241,
    "valid_to": 1000000,
    "source": "book+web",
    "confidence": "medium"
   },
   "geometry": {
    "type": "Polygon",
    "coordinates": [
     [
      [
       14.9,
       38.3
      ],
      [
       15.7,
       38.2
      ],
      [
       15.3,
       37
      ],
      [
       14.9,
       36.7
      ],
      [
       14.3,
       37.2
      ],
      [
       14.4,
       37.9
      ],
      [
       14.9,
       38.3
      ]
     ]
    ]
   }
  },
  {
   "type": "Feature",
   "properties": {
    "id": "sicily_west@-264",
    "layer": "territory",
    "region": "sicily_west",
    "name_ko": "시칠리아 서부",
    "actor": "carthage",
    "valid_from": -264,
    "valid_to": -241,
    "source": "book+web",
    "confidence": "medium"
   },
   "geometry": {
    "type": "Polygon",
    "coordinates": [
     [
      [
       12.4,
       38.2
      ],
      [
       13.9,
       38
      ],
      [
       14.3,
       37
      ],
      [
       12.4,
       36.7
      ],
      [
       11.9,
       37.5
      ],
      [
       12.4,
       38.2
      ]
     ]
    ]
   }
  },
  {
   "type": "Feature",
   "properties": {
    "id": "sicily_west@-241",
    "layer": "territory",
    "region": "sicily_west",
    "name_ko": "시칠리아 서부",
    "actor": "rome",
    "valid_from": -241,
    "valid_to": 1000000,
    "source": "book+web",
    "confidence": "medium"
   },
   "geometry": {
    "type": "Polygon",
    "coordinates": [
     [
      [
       12.4,
       38.2
      ],
      [
       13.9,
       38
      ],
      [
       14.3,
       37
      ],
      [
       12.4,
       36.7
      ],
      [
       11.9,
       37.5
      ],
      [
       12.4,
       38.2
      ]
     ]
    ]
   }
  },
  {
   "type": "Feature",
   "properties": {
    "id": "sardinia@-264",
    "layer": "territory",
    "region": "sardinia",
    "name_ko": "사르디니아",
    "actor": "carthage",
    "valid_from": -264,
    "valid_to": -238,
    "source": "book+web",
    "confidence": "medium"
   },
   "geometry": {
    "type": "Polygon",
    "coordinates": [
     [
      [
       8.4,
       41.3
      ],
      [
       9.7,
       41.2
      ],
      [
       9.6,
       39.2
      ],
      [
       8.5,
       38.9
      ],
      [
       8.1,
       39.9
      ],
      [
       8.2,
       40.9
      ],
      [
       8.4,
       41.3
      ]
     ]
    ]
   }
  },
  {
   "type": "Feature",
   "properties": {
    "id": "sardinia@-238",
    "layer": "territory",
    "region": "sardinia",
    "name_ko": "사르디니아",
    "actor": "rome",
    "valid_from": -238,
    "valid_to": 1000000,
    "source": "book+web",
    "confidence": "medium"
   },
   "geometry": {
    "type": "Polygon",
    "coordinates": [
     [
      [
       8.4,
       41.3
      ],
      [
       9.7,
       41.2
      ],
      [
       9.6,
       39.2
      ],
      [
       8.5,
       38.9
      ],
      [
       8.1,
       39.9
      ],
      [
       8.2,
       40.9
      ],
      [
       8.4,
       41.3
      ]
     ]
    ]
   }
  },
  {
   "type": "Feature",
   "properties": {
    "id": "corsica@-264",
    "layer": "territory",
    "region": "corsica",
    "name_ko": "코르시카",
    "actor": "carthage",
    "valid_from": -264,
    "valid_to": -238,
    "source": "book+web",
    "confidence": "medium"
   },
   "geometry": {
    "type": "Polygon",
    "coordinates": [
     [
      [
       9.4,
       43.1
      ],
      [
       9.6,
       42.6
      ],
      [
       9.3,
       41.6
      ],
      [
       8.7,
       41.4
      ],
      [
       8.5,
       42.1
      ],
      [
       9,
       42.9
      ],
      [
       9.4,
       43.1
      ]
     ]
    ]
   }
  },
  {
   "type": "Feature",
   "properties": {
    "id": "corsica@-238",
    "layer": "territory",
    "region": "corsica",
    "name_ko": "코르시카",
    "actor": "rome",
    "valid_from": -238,
    "valid_to": 1000000,
    "source": "book+web",
    "confidence": "medium"
   },
   "geometry": {
    "type": "Polygon",
    "coordinates": [
     [
      [
       9.4,
       43.1
      ],
      [
       9.6,
       42.6
      ],
      [
       9.3,
       41.6
      ],
      [
       8.7,
       41.4
      ],
      [
       8.5,
       42.1
      ],
      [
       9,
       42.9
      ],
      [
       9.4,
       43.1
      ]
     ]
    ]
   }
  },
  {
   "type": "Feature",
   "properties": {
    "id": "africa_carthage@-264",
    "layer": "territory",
    "region": "africa_carthage",
    "name_ko": "아프리카(카르타고)",
    "actor": "carthage",
    "valid_from": -264,
    "valid_to": 1000000,
    "source": "book+web",
    "confidence": "medium"
   },
   "geometry": {
    "type": "Polygon",
    "coordinates": [
     [
      [
       11.3,
       37.3
      ],
      [
       10.2,
       37
      ],
      [
       10.6,
       36.2
      ],
      [
       10,
       35.5
      ],
      [
       10.8,
       34.5
      ],
      [
       10,
       33.5
      ],
      [
       8.5,
       33.7
      ],
      [
       8.5,
       36
      ],
      [
       9.5,
       37
      ],
      [
       11.3,
       37.3
      ]
     ]
    ]
   }
  },
  {
   "type": "Feature",
   "properties": {
    "id": "hispania_east@-264",
    "layer": "territory",
    "region": "hispania_east",
    "name_ko": "히스파니아 동부",
    "actor": "carthage",
    "valid_from": -264,
    "valid_to": 1000000,
    "source": "book+web",
    "confidence": "medium"
   },
   "geometry": {
    "type": "Polygon",
    "coordinates": [
     [
      [
       3.2,
       42.4
      ],
      [
       2.3,
       41.5
      ],
      [
       0.5,
       40
      ],
      [
       -0.2,
       38.7
      ],
      [
       -0.8,
       37.6
      ],
      [
       0.5,
       38.5
      ],
      [
       1,
       39.8
      ],
      [
       2,
       41.2
      ],
      [
       3.2,
       42.4
      ]
     ]
    ]
   }
  }
 ]
}
